BRAC ONNESHA            
1 42823U 98067MX  18070.59099260  .00021445  00000-0  23246-3 0  9991
2 42823  51.6369 136.2372 0004341 177.2640 182.8379 15.63472283 38565
NIGERIAEDUSAT-1         
1 42824U 98067MY  18070.54099591  .00020956  00000-0  22851-3 0  9991
2 42824  51.6374 136.6635 0004252 177.7287 182.3728 15.63337267 38555
CORVUS BC2              
1 42846U 17042X   18070.61252534  .00000335  00000-0  38589-4 0  9990
2 42846  97.6050 336.9664 0010195 153.4090 206.7654 14.91771152 35824
CORVUS BC1              
1 42847U 17042Y   18070.52958985  .00000125  00000-0  17687-4 0  9997
2 42847  97.6050 336.9213 0009865 152.8852 207.2884 14.91870139 35800
SILU-1 (SILKROAD 1)     
1 42903U 17021F   18070.41066157  .00017539  00000-0  16152-3 0  9998
2 42903  42.7782 198.6009 0011352 329.6446 132.9046 15.67247497 34564
MIRATA                  
1 43015U 17073C   18070.39660191  .00000785  00000-0  68325-4 0  9990
2 43015  97.6986   5.5775 0257835 229.6773 128.1659 14.77867369 16697
ASTERIA                 
1 43020U 98067NH  18070.59582937  .00014374  00000-0  20169-3 0  9993
2 43020  51.6398 143.7978 0002181 152.5103 207.6005 15.57000585 17274
DELLINGR (RBLE)         
1 43021U 98067NJ  18070.56352005  .00005728  00000-0  87246-4 0  9995
2 43021  51.6396 144.3274 0002114 150.6854 209.4256 15.56122840 17262
TECHEDSAT 6             
1 43026U 98067NK  18070.54182584  .00109471  00000-0  94220-3 0  9990
2 43026  51.6347 139.6599 0003163 350.7749   9.3189 15.68461844 17222
OSIRIS-3U               
1 43027U 98067NL  18070.57373827  .00024525  00000-0  31138-3 0  9991
2 43027  51.6385 142.8954 0002363 125.4199 234.7014 15.59267642 17167
AEROCUBE 7B             
1 43042U 17071F   18070.49408134  .00003480  00000-0  10150-3 0  9993
2 43042  51.6388 157.2189 0004972 273.3295  86.7120 15.38143847 14566
AEROCUBE 7C             
1 43043U 17071G   18070.49348821  .00003547  00000-0  10320-3 0  9993
2 43043  51.6391 157.2166 0004896 273.3678  86.6746 15.38162906 14533
CHEFSAT                 
1 43044U 17071H   18070.61007057  .00006976  00000-0  19016-3 0  9991
2 43044  51.6391 156.4995 0004939 270.6384  89.4034 15.38601721 14553
ASGARDIA 1              
1 43049U 17071N   18070.61318563  .00003008  00000-0  88643-4 0  9999
2 43049  51.6392 156.5187 0002331 297.4205  62.6542 15.38320510 14557
ISARA                   
1 43050U 17071P   18070.60615490  .00005075  00000-0  14130-3 0  9994
2 43050  51.6391 156.4759 0002368 293.1356  66.9378 15.38572951 14554
FAUNA                   
1 43052U 17071R   18070.60889521  .00003114  00000-0  91147-4 0  9990
2 43052  51.6394 156.4939 0002240 292.9108  67.1640 15.38411342 14540
CORVUS BC3              
1 43118U 18004H   18070.58647372  .00000849  00000-0  40193-4 0  9990
2 43118  97.5456 132.9315 0012319  78.7882 281.4737 15.22058373  8865
MICROMAS-2A             
1 43131U 18004W   18070.11545522  .00001748  00000-0  78674-4 0  9992
2 43131  97.5461 132.4874 0011564  83.5568 276.6984 15.22396843  8796
GOMX4-B                 
1 43196U 18015E   18070.60918779  .00000629  00000-0  29029-4 0  9994
2 43196  97.3303 201.6600 0020594 138.9926 221.2884 15.23626989  5679
GOMX4-A                 
1 43197U 18015F   18070.42287617  .00001067  00000-0  47363-4 0  9993
2 43197  97.3301 201.4717 0020657 138.4551 264.9180 15.23524188  5653
